STARLINK-11169 [DTC]    
1 60064U 24113F   24198.03852585  .00038974  00000+0  24029-3 0  9997
2 60064  53.1525 278.0019 0001502  66.4221 293.6957 15.76798085  5108
STARLINK-11102 [DTC]    
1 60065U 24113G   24197.78013113  .00271406  00000+0  16100-2 0  9994
2 60065  53.1533 279.2303 0000869  98.2260 261.8859 15.76726572  5018
STARLINK-11141 [DTC]    
1 60066U 24113H   24197.71185508  .00440652  00000+0  25550-2 0  9996
2 60066  53.1556 279.5139 0001617 132.3249 227.7909 15.76766501  5005
STARLINK-11153 [DTC]    
1 60067U 24113J   24197.77035991  .00395189  00000+0  23047-2 0  9996
2 60067  53.1559 279.1661 0000866 160.9345 199.1709 15.76761003  5017
STARLINK-11170 [DTC]    
1 60068U 24113K   24197.95562582  .00085255  00000+0  51758-3 0  9999
2 60068  53.1657 278.1893 0004409  79.3125 280.8393 15.76810902  5402
STARLINK-11171 [DTC]    
1 60069U 24113L   24198.20427249  .00050300  00000+0  30964-3 0  9998
2 60069  53.1654 276.8931 0000450 295.6070  64.4905 15.76718947  5391
STARLINK-11186 [DTC]    
1 60070U 24113M   24198.00002315 -.00004206  00000+0 -21728-4 0  9996
2 60070  53.1652 277.8540 0000556 109.2871 198.5131 15.76722883  5455
STARLINK-11184 [DTC]    
1 60071U 24113N   24198.25002315  .00222091  00000+0  11335-2 0  9997
2 60071  53.1653 276.4791 0002085  50.2315 300.4990 15.80219059  5343
STARLINK-32032          
1 60077U 24113U   24197.52915583  .00002005  00000+0  60098-4 0  9995
2 60077  53.1581 283.3952 0001253  82.3757 277.7391 15.39614665  4938
KINEIS-1B               
1 60079U 24114A   24198.18102721  .00003322  00000+0  47042-3 0  9999
2 60079  98.0287 213.8537 0002712 167.8611 192.2665 14.77733450  3756
KINEIS-1C               
1 60081U 24114C   24198.12349400  .00002894  00000+0  41662-3 0  9998
2 60081  98.0288 213.7722 0000707  82.7909 277.3381 14.77134111  3739
KINEIS-1D               
1 60082U 24114D   24197.91884526  .00002733  00000+0  39300-3 0  9996
2 60082  98.0287 213.5722 0000408 129.8026 230.3220 14.77222907  3707
KINEIS-1E               
1 60083U 24114E   24197.78194307  .00003234  00000+0  46284-3 0  9999
2 60083  98.0287 213.4395 0001537 123.6501 236.4856 14.77301532  3688
KINEIS-1A               
1 60084U 24114F   24197.77697075  .00003241  00000+0  46112-3 0  9997
2 60084  98.0290 213.4462 0001917 183.4000 176.7197 14.77557593  3682
ELECTRON KICK STAGE R/B 
1 60085U 24114G   24197.76397061  .00009199  00000+0  70884-3 0  9990
2 60085  98.0262 214.2632 0091133 311.2702  48.0695 14.98583654  3739
ASTRA 1P                
1 60086U 24115A   24194.91692130 -.00000171  00000+0  00000+0 0  9992
2 60086  22.3549  60.1979 7616360 184.3919 176.5976  1.22077150    10
FALCON 9 R/B            
1 60087U 24115B   24197.61802394  .00000309  00000+0  12178-2 0  9992
2 60087  28.0834  59.4347 7975993 186.3174 146.7001  1.43361187   361
CATCH-1                 
1 60088U 24116A   24198.21768285  .00002360  00000+0  29030-3 0  9996
2 60088  28.9942 217.1101 0004776 115.7263 244.3822 14.79914671  3513
SVOM                    
1 60089U 24116B   24198.22176149  .00002279  00000+0  28150-3 0  9991
2 60089  28.9943 217.1435 0005870 103.9318 256.1927 14.79655002  3518
CZ-2C R/B               
1 60090U 24116C   24198.18237350  .00657828 -75534-5  85851-3 0  9998
2 60090  28.0428 194.7607 0214182 302.4595  55.5461 15.74709919  3653
STARLINK-31441          
1 60091U 24117A   24198.25002315 -.01637054  00000+0 -12998-1 0  9990
2 60091  53.1490 314.1835 0000835  87.3182 321.0474 15.73452856  4506
STARLINK-32044          
1 60092U 24117B   24198.25002315 -.01616515  00000+0 -12819-1 0  9992
2 60092  53.1491 314.1800 0001550  77.4883 332.7958 15.73437476  4555
STARLINK-31239          
1 60093U 24117C   24198.25002315 -.01477856  00000+0 -11883-1 0  9996
2 60093  53.1502 314.1745 0001090 114.9269 297.3275 15.73343262  4705
STARLINK-32007          
1 60094U 24117D   24198.25002315 -.01444326  00000+0 -11599-1 0  9997
2 60094  53.1509 314.1723 0000990 118.2712 295.9341 15.73301072  4562
STARLINK-32028          
1 60095U 24117E   24198.25002315 -.01641315  00000+0 -13033-1 0  9990
2 60095  53.1515 314.1684 0000971  98.2190 317.7985 15.73457146  4721
STARLINK-32016          
1 60096U 24117F   24198.25002315 -.01616542  00000+0 -12823-1 0  9991
2 60096  53.1504 314.1640 0000710  90.1172 327.8216 15.73439180  4697
STARLINK-32003          
1 60097U 24117G   24198.25002315 -.01468504  00000+0 -11800-1 0  9999
2 60097  53.1492 314.1603 0001262  45.7294  14.1821 15.73336499  4728
STARLINK-32026          
1 60098U 24117H   24198.25002315 -.01465024  00000+0 -11803-1 0  9997
2 60098  53.1500 314.1514 0001373  31.9159  31.9265 15.73267246  4508
STARLINK-31732          
1 60099U 24117J   24198.25002315 -.01635236  00000+0 -12982-1 0  9991
2 60099  53.1503 314.1561 0001046  50.6470  11.1151 15.73450309  4705
STARLINK-31996          
1 60100U 24117K   24198.25002315 -.02055276  00000+0 -16226-1 0  9990
2 60100  53.1515 314.1488 0000894 120.3911 305.0568 15.73781853  4601
STARLINK-31999          
1 60101U 24117L   24198.25002315 -.01631720  00000+0 -12952-1 0  9996
2 60101  53.1518 314.1448 0000948  70.2280 357.2764 15.73448760  4708
STARLINK-31954          
1 60102U 24117M   24198.25002315 -.01668123  00000+0 -13260-1 0  9997
2 60102  53.1500 314.1407 0001366  51.9036  17.4989 15.73476586  4504
STARLINK-32013          
1 60103U 24117N   24198.25002315 -.01667912  00000+0 -13339-1 0  9990
2 60103  53.1541 314.1379 0000780  94.1956 337.3917 15.73342497  4707
STARLINK-32009          
1 60104U 24117P   24197.91667824 -.00783597  00000+0 -56600-2 0  9991
2 60104  53.1460 315.3149 0001227  82.3215 129.7145 15.74992386  4750
STARLINK-32018          
1 60105U 24117Q   24198.25002315 -.01512781  00000+0 -12186-1 0  9994
2 60105  53.1537 314.1254 0001181  53.6899  23.4216 15.73375764  4773
STARLINK-32045          
1 60106U 24117R   24198.25002315 -.01427518  00000+0 -11466-1 0  9998
2 60106  53.1518 314.1306 0000794  69.7438   5.5560 15.73263246  4557
STARLINK-32035          
1 60107U 24117S   24198.25002315 -.02026512  00000+0 -16026-1 0  9996
2 60107  53.1571 314.1226 0001107  63.2154  15.7817 15.73696418  4707
STARLINK-32042          
1 60108U 24117T   24198.25002315 -.01649649  00000+0 -13173-1 0  9998
2 60108  53.1560 314.1136 0000894  90.0184 353.0195 15.73343412  4675
STARLINK-32040          
1 60109U 24117U   24198.25002315 -.01484121  00000+0 -11969-1 0  9992
2 60109  53.1568 314.1193 0000508 167.5762 273.4637 15.73294246  4701
STARLINK-32001          
1 60110U 24117V   24198.25002315 -.01435776  00000+0 -11536-1 0  9996
2 60110  53.1541 314.1103 0001185  90.2989 354.5657 15.73269518  4707
STARLINK-32015          
1 60111U 24117W   24198.25002315 -.02126388  00000+0 -16842-1 0  9999
2 60111  53.1526 314.1062 0000532  98.7698 347.7466 15.73822089  4609
STARLINK-32024          
1 60112U 24117X   24198.25002315 -.01708091  00000+0 -13606-1 0  9991
2 60112  53.1510 314.1009 0000952  91.2536 357.2761 15.73505221  4722
STARLINK-11201 [DTC]    
1 60113U 24118A   24197.85623926 -.00238777  00000+0 -15137-2 0  9995
2 60113  53.1597 310.6684 0003946  42.7658 317.3669 15.76449103  4329
STARLINK-11198 [DTC]    
1 60114U 24118B   24198.04423406  .00828698  00000+0  45258-2 0  9991
2 60114  53.1560 309.7039 0002182  52.6525 307.4694 15.77056972  4346
STARLINK-11112 [DTC]    
1 60115U 24118C   24198.04119515 -.00075868  00000+0 -46529-3 0  9993
2 60115  53.1558 309.6823 0000887 105.7322 254.3797 15.76651166  4562
STARLINK-11210 [DTC]    
1 60116U 24118D   24198.03631315  .00443947  00000+0  25604-2 0  9995
2 60116  53.1550 309.6500 0001298  71.6591 288.4571 15.76877887  4347
STARLINK-11203 [DTC]    
1 60117U 24118E   24198.15818751  .00179989  00000+0  10705-2 0  9998
2 60117  53.1557 308.9873 0002556  31.6140 328.5034 15.76939208  4520
STARLINK-11177 [DTC]    
1 60118U 24118F   24198.02653961  .01074489  00000+0  57916-2 0  9990
2 60118  53.1590 309.5866 0002369   9.2220 350.8845 15.77124565  4519
STARLINK-11127 [DTC]    
1 60119U 24118G   24198.14844474  .00048547  00000+0  29913-3 0  9997
2 60119  53.1583 308.9218 0000871 137.0600 223.0489 15.76712717  4363
STARLINK-11164 [DTC]    
1 60120U 24118H   24198.14353811  .00684243  00000+0  38079-2 0  9990
2 60120  53.1540 308.8875 0000567 355.6024   4.4992 15.77019824  4591
STARLINK-11119 [DTC]    
1 60121U 24118J   24198.25002315  .00106292  00000+0  64697-3 0  9992
2 60121  53.1647 308.2455 0000873 115.1773 185.0709 15.76671785  4544
STARLINK-11157 [DTC]    
1 60122U 24118K   24198.13867653 -.00067102  00000+0 -41066-3 0  9997
2 60122  53.1653 308.8578 0000607 103.1139 256.9949 15.76651114  4269
STARLINK-11162 [DTC]    
1 60123U 24118L   24198.12889705  .00204108  00000+0  12192-2 0  9993
2 60123  53.1644 308.7925 0000793  80.1319 279.9792 15.76768950  4207
STARLINK-11161 [DTC]    
1 60124U 24118M   24196.41668981  .00089100  00000+0  54122-3 0  9998
2 60124  53.1660 317.2630 0001426  75.8808 307.1657 15.76790533  4253
STARLINK-11160 [DTC]    
1 60125U 24118N   24197.75001157  .00032265  00000+0  20021-3 0  9994
2 60125  53.1657 310.5670 0000488  44.3136  19.3689 15.76748018  4575
STARLINK-31846          
1 60126U 24118P   24198.16667824  .00003348  00000+0  68218-4 0  9991
2 60126  53.1593 309.7093 0000756  88.3990 292.6105 15.49310605  4574
STARLINK-31840          
1 60127U 24118Q   24198.25002315 -.00013573  00000+0 -23633-3 0  9994
2 60127  53.1593 309.3066 0000971 102.7771  25.2690 15.49317880  4524
STARLINK-31813          
1 60128U 24118R   24198.16667824  .00003815  00000+0  76611-4 0  9998
2 60128  53.1593 309.7012 0001013 106.4947 278.3472 15.49310397  4518
